1 45054U 20006L   22365.60973898  .00002497  00000-0  18648-3 0  9996
2 45054  53.0544 112.3805 0001601  54.0494 306.0644 15.06402578161004
1 45054U 20006L   22365.67608814  .00002228  00000-0  16843-3 0  9993
2 45054  53.0548 112.0835 0001612  47.4063 312.7061 15.06400025161011
1 45054U 20006L   23001.47227254 -.00003580  00000-0 -22166-3 0  9993
2 45054  53.0556 108.5100 0001679  51.0070 309.1068 15.06384568161130
1 45054U 20006L   23001.80400374 -.00002682  00000-0 -16124-3 0  9995
2 45054  53.0551 107.0198 0001606  57.3639 302.7505 15.06388658161180
1 45054U 20006L   23002.53380778 -.00000021  00000-0  17522-4 0  9999
2 45054  53.0555 103.7438 0001722  52.9445 307.1701 15.06400979161299
1 45054U 20006L   23003.52902325  .00001472  00000-0  11779-3 0  9994
2 45054  53.0553  99.2759 0001856  53.5119 306.6040 15.06382734161440
1 45054U 20006L   23004.52422249  .00000645  00000-0  62233-4 0  9990
2 45054  53.0544  94.8079 0001819  44.9123 315.2013 15.06397961161594
1 45054U 20006L   23005.51940746  .00002597  00000-0  19315-3 0  9997
2 45054  53.0553  90.3401 0001808  41.9559 318.1568 15.06411169161743
1 45054U 20006L   23005.65210628  .00001729  00000-0  13493-3 0  9998
2 45054  53.0558  89.7450 0001600  17.9606 342.1439 15.06404226161762
1 45054U 20006L   23006.51464327 -.00001434  00000-0 -77398-4 0  9991
2 45054  53.0547  85.8722 0001891  17.5461 342.5593 15.06383019161891
1 45054U 20006L   23006.97905170  .00000308  00000-0  39581-4 0  9996
2 45054  53.0541  83.7869 0002045  41.4790 318.6354 15.06408944161969
1 45054U 20006L   23007.90791588  .00000573  00000-0  57406-4 0  9996
2 45054  53.0560  79.6193 0002009  39.3470 320.7665 15.06396114162106
1 45054U 20006L   23007.97426597  .00002787  00000-0  20598-3 0  9998
2 45054  53.0564  79.3212 0002028  37.1370 322.9759 15.06387264162110
1 45054U 20006L   23008.90311897  .00001505  00000-0  11992-3 0  9993
2 45054  53.0556  75.1509 0002149  36.3991 323.7144 15.06400268162250
1 45054U 20006L   23009.43389179  .00001495  00000-0  11924-3 0  9993
2 45054  53.0557  72.7684 0002218  32.2045 327.9079 15.06401047162338
1 45054U 20006L   23009.89832125  .00001452  00000-0  11641-3 0  9996
2 45054  53.0551  70.6830 0002199  37.6615 322.4528 15.06397924162407
1 45054U 20006L   23010.56177490 -.00011148  00000-0 -72891-3 0  9998
2 45054  53.0527  67.7049 0003015  40.2165 319.9047 15.06482425162843
1 45054U 20006L   23011.55700393 -.00001169  00000-0 -59612-4 0  9991
2 45054  53.0562  63.2357 0002220  42.1957 317.9203 15.06386186162997
1 45054U 20006L   23011.82238860 -.00002685  00000-0 -16146-3 0  9994
2 45054  53.0540  62.0458 0002322  42.9274 317.1896 15.06383184162697
1 45054U 20006L   23012.81758937 -.00000537  00000-0 -17102-4 0  9994
2 45054  53.0537  57.5788 0002254  43.1153 317.0012 15.06394644162840
1 45054U 20006L   23013.41472390  .00002672  00000-0  19831-3 0  9997
2 45054  53.0550  54.8997 0002116  58.5341 301.5854 15.06387381162935
1 45054U 20006L   23015.47147299  .00010140  00000-0  69863-3 0  9991
2 45054  53.0541  45.6647 0002276  71.7892 288.3345 15.06402179163245
1 45054U 20006L   23015.80321028  .00013400  00000-0  91679-3 0  9994
2 45054  53.0540  44.1752 0002206  73.3475 286.7756 15.06399120163297
1 45054U 20006L   23016.46667380  .00018179  00000-0  12354-2 0  9991
2 45054  53.0545  41.1955 0002152  81.5355 278.5878 15.06422052163398
1 45054U 20006L   23016.79841109  .00002334  00000-0  17552-3 0  9992
2 45054  53.0556  39.7071 0001888  81.2610 278.8593 15.06399263163448
1 45054U 20006L   23017.32919546 -.00000958  00000-0 -45436-4 0  9998
2 45054  53.0534  37.3252 0002344  86.3668 273.7589 15.06383116163524
1 45054U 20006L   23018.32439871  .00033181  00000-0  22342-2 0  9998
2 45054  53.0546  32.8581 0002137  91.7296 268.3938 15.06429590163670
1 45054U 20006L   23018.72247395  .00026759  00000-0  18068-2 0  9993
2 45054  53.0552  31.0702 0001633  84.1708 275.9467 15.06434844163733
1 45054U 20006L   23019.38593521  .00015303  00000-0  10431-2 0  9990
2 45054  53.0546  28.0923 0001999  92.8737 267.2480 15.06431329163835
1 45054U 20006L   23020.38114613  .00022301  00000-0  15116-2 0  9994
2 45054  53.0536  23.6248 0001931  90.0068 270.1142 15.06393208163985
1 45054U 20006L   23025.35716641  .00011484  00000-0  78833-3 0  9991
2 45054  53.0558   1.2859 0001925 101.1287 258.9918 15.06412424164730
1 45054U 20006L   23025.62255479  .00010790  00000-0  74196-3 0  9995
2 45054  53.0556   0.0918 0001693  88.8217 271.2966 15.06408905164771
1 45054U 20006L   23026.08698543  .00003544  00000-0  25674-3 0  9995
2 45054  53.0562 358.0103 0001922  98.6550 261.4657 15.06398578164844
1 45054U 20006L   23027.28122959  .00003933  00000-0  28274-3 0  9992
2 45054  53.0540 352.6475 0001671  91.4160 268.7020 15.06402636165027
1 45054U 20006L   23028.27643125  .00004260  00000-0  30466-3 0  9995
2 45054  53.0532 348.1779 0001603  96.7627 263.3544 15.06405574165178
1 45054U 20006L   23029.86875737  .00000819  00000-0  73852-4 0  9990
2 45054  53.0532 341.0311 0001578  86.2856 273.8313 15.06400748165416
1 45054U 20006L   23030.26683378  .00002052  00000-0  15656-3 0  9992
2 45054  53.0541 339.2442 0001569  89.7722 270.3447 15.06408034165472
1 45054U 20006L   23030.66491919  .00001630  00000-0  12828-3 0  9993
2 45054  53.0539 337.4584 0001574  90.7043 269.4126 15.06399170165530
1 45054U 20006L   23031.26203729  .00001536  00000-0  12200-3 0  9999
2 45054  53.0536 334.7772 0001576  88.9498 271.1671 15.06404955165624
1 45054U 20006L   23031.85916185 -.00000006  00000-0  18522-4 0  9997
2 45054  53.0536 332.0965 0001605  93.7763 266.3409 15.06397984165719
